OBJECT_NAME,OBJECT_ID,EPOCH,MEAN_MOTION,ECCENTRICITY,INCLINATION,RA_OF_ASC_NODE,ARG_OF_PERICENTER,MEAN_ANOMALY,EPHEMERIS_TYPE,CLASSIFICATION_TYPE,NORAD_CAT_ID,ELEMENT_SET_NO,REV_AT_EPOCH,BSTAR,MEAN_MOTION_DOT,MEAN_MOTION_DDOT
SAUDISAT 2,2004-025F,2026-06-04T12:39:36.073440,14.56676307,.00242262,98.5505,155.1824,338.4708,21.5468,0,U,28371,999,16390,.91212561E-4,.359E-5,0
COSMOS 2407,2004-028A,2026-06-05T01:27:20.592000,13.76333710,.0037842,82.9606,83.8148,287.1290,83.5293,0,U,28380,999,9821,.60333E-4,.74E-6,0
COSMOS 2414,2005-002A,2026-06-05T01:33:41.761152,13.87925534,.0040326,82.9507,52.8160,6.1049,354.0597,0,U,28521,999,8213,.54261E-4,.81E-6,0
INMARSAT 4-F1,2005-009A,2026-06-04T21:15:14.518944,1.00272899,.0002927,5.1512,42.7351,33.5062,314.0155,0,U,28628,999,7754,0,.44E-6,0
SJ-7,2005-024A,2026-06-05T01:19:12.954720,15.21349730,.0017279,97.7285,185.8334,77.0581,283.2583,0,U,28737,999,14618,.42019E-3,.9381E-4,0
CUBESAT XI-V,2005-043F,2026-06-04T23:14:19.792896,14.72598149,.001293,98.2974,311.3347,241.7427,118.2475,0,U,28895,999,9995,.27373E-3,.1691E-4,0
HINODE (SOLAR-B),2006-041A,2026-06-04T23:45:11.066688,14.68605640,.0016629,98.0549,172.3219,331.2496,28.7791,0,U,29479,999,5308,.16458E-3,.909E-5,0
SHIJIAN-6 02B (SJ-6 02B),2006-046B,2026-06-05T05:11:41.277408,15.01344861,.0014363,97.7156,185.3488,95.2143,265.0721,0,U,29506,999,6894,.12447E-3,.1545E-4,0
DMSP 5D-3 F17 (USA 191),2006-050A,2026-06-05T03:34:13.238976,14.14991228,.0011328,98.7378,162.9651,90.0696,270.1775,0,U,29522,999,1072,.48619E-4,.51E-6,0
LAPAN-TUBSAT,2007-001A,2026-06-05T04:49:08.495328,14.85936046,.001102,98.1339,155.1548,220.8201,139.2188,0,U,29709,999,4937,.30852E-4,.212E-5,0
HAIYANG-1B,2007-010A,2026-06-03T13:55:35.735808,14.31023350,.00123401,98.3489,136.9535,239.3242,120.6726,0,U,31113,999,99868,.54011753E-4,.1E-5,0
COSMO-SKYMED 2,2007-059A,2026-06-05T03:27:35.191584,14.82161607,.0001453,97.8885,339.9170,87.3495,272.7885,0,U,32376,999,22,.68821E-4,.496E-5,0
CARTOSAT-2A,2008-021A,2026-06-05T03:23:16.448640,14.79219274,.001244,97.7635,205.2601,144.3607,215.8438,0,U,32783,999,97702,.75486E-4,.511E-5,0
CUTE-1.7+APD II (CO-65),2008-021C,2026-06-05T02:48:39.934368,15.09331596,.0010589,97.8271,137.2864,74.0522,286.1872,0,U,32785,999,98337,.37629E-3,.5944E-4,0
SEEDS II (CO-66),2008-021J,2026-06-04T23:47:11.606784,15.32316594,.0002846,97.7517,153.3111,38.3892,321.7551,0,U,32791,999,98542,.68611E-3,.21364E-3,0
YUBILEINY (RS30),2008-025A,2026-06-05T02:34:24.957984,12.43178951,.0019376,82.5043,2.9561,340.9425,19.0928,0,U,32953,999,81819,.2519E-3,.45E-6,0
FENGYUN 3A,2008-026A,2026-06-05T01:33:45.454752,14.19568584,.0009084,98.6880,97.1252,156.0332,204.1269,0,U,32958,999,93368,.66709E-4,.97E-6,0
HUANJING 1A (HJ-1A),2008-041A,2026-06-05T05:33:23.646816,14.83957682,.0018815,97.6681,142.5330,172.9285,187.2199,0,U,33320,999,95663,.14468E-3,.1155E-4,0
HUANJING 1B (HJ-1B),2008-041B,2026-06-05T04:41:05.694720,14.83296277,.0035048,97.6515,145.7057,221.2207,138.6360,0,U,33321,999,95663,.15078E-3,.1195E-4,0
SHIJIAN-6 03A (SJ-6 03A),2008-053A,2026-06-05T04:14:23.727264,15.17043032,.0012619,97.8408,189.0804,58.1630,302.0829,0,U,33408,999,96114,.31871E-3,.6246E-4,0
SHIJIAN-6 03B (SJ-6 03B),2008-053B,2026-06-05T04:38:07.956096,15.04276133,.0020799,97.8579,175.8856,81.8967,278.4617,0,U,33409,999,96094,.16666E-3,.2265E-4,0
CHUANGXIN 1-02 (CX-1-02),2008-056B,2026-06-05T04:39:20.565792,14.30150794,.0014245,98.6133,182.5801,170.6723,189.4726,0,U,33434,999,91690,.71209E-4,.141E-5,0
