SAUDISAT 2              
1 28371U 04025F   26155.52750085  .00000359  00000+0  91213-4 0  9999
2 28371  98.5505 155.1824 0024226 338.4708  21.5468 14.56676307163900
COSMOS 2407             
1 28380U 04028A   26156.06065500  .00000074  00000+0  60333-4 0  9996
2 28380  82.9606  83.8148 0037842 287.1290  83.5293 13.76333710 98213
COSMOS 2414             
1 28521U 05002A   26156.06506668  .00000081  00000+0  54261-4 0  9992
2 28521  82.9507  52.8160 0040326   6.1049 354.0597 13.87925534 82132
INMARSAT 4-F1           
1 28628U 05009A   26155.88558471  .00000044  00000+0  00000+0 0  9991
2 28628   5.1512  42.7351 0002927  33.5062 314.0155  1.00272899 77543
SJ-7                    
1 28737U 05024A   26156.05501105  .00009381  00000+0  42019-3 0  9994
2 28737  97.7285 185.8334 0017279  77.0581 283.2583 15.21349730146189
CUBESAT XI-V            
1 28895U 05043F   26155.96828464  .00001691  00000+0  27373-3 0  9991
2 28895  98.2974 311.3347 0012930 241.7427 118.2475 14.72598149 99957
HINODE (SOLAR-B)        
1 29479U 06041A   26155.98971142  .00000909  00000+0  16458-3 0  9996
2 29479  98.0549 172.3219 0016629 331.2496  28.7791 14.68605640 53085
SHIJIAN-6 02B (SJ-6 02B)
1 29506U 06046B   26156.21644997  .00001545  00000+0  12447-3 0  9995
2 29506  97.7156 185.3488 0014363  95.2143 265.0721 15.01344861 68940
DMSP 5D-3 F17 (USA 191) 
1 29522U 06050A   26156.14876434  .00000051  00000+0  48619-4 0  9995
2 29522  98.7378 162.9651 0011328  90.0696 270.1775 14.14991228 10729
LAPAN-TUBSAT            
1 29709U 07001A   26156.20079277  .00000212  00000+0  30852-4 0  9995
2 29709  98.1339 155.1548 0011020 220.8201 139.2188 14.85936046 49371
HAIYANG-1B              
1 31113U 07010A   26154.58027472  .00000100  00000+0  54012-4 0  9996
2 31113  98.3489 136.9535 0012340 239.3242 120.6726 14.31023350998685
COSMO-SKYMED 2          
1 32376U 07059A   26156.14415731  .00000496  00000+0  68821-4 0  9995
2 32376  97.8885 339.9170 0001453  87.3495 272.7885 14.82161607   228
CARTOSAT-2A             
1 32783U 08021A   26156.14116260  .00000511  00000+0  75486-4 0  9995
2 32783  97.7635 205.2601 0012440 144.3607 215.8438 14.79219274977026
CUTE-1.7+APD II (CO-65) 
1 32785U 08021C   26156.11712887  .00005944  00000+0  37629-3 0  9992
2 32785  97.8271 137.2864 0010589  74.0522 286.1872 15.09331596983371
SEEDS II (CO-66)        
1 32791U 08021J   26155.99110656  .00021364  00000+0  68611-3 0  9999
2 32791  97.7517 153.3111 0002846  38.3892 321.7551 15.32316594985429
YUBILEINY (RS30)        
1 32953U 08025A   26156.10723331  .00000045  00000+0  25190-3 0  9995
2 32953  82.5043   2.9561 0019376 340.9425  19.0928 12.43178951818199
FENGYUN 3A              
1 32958U 08026A   26156.06510943  .00000097  00000+0  66709-4 0  9998
2 32958  98.6880  97.1252 0009084 156.0332 204.1269 14.19568584933689
HUANJING 1A (HJ-1A)     
1 33320U 08041A   26156.23152369  .00001155  00000+0  14468-3 0  9992
2 33320  97.6681 142.5330 0018815 172.9285 187.2199 14.83957682956634
HUANJING 1B (HJ-1B)     
1 33321U 08041B   26156.19520480  .00001195  00000+0  15078-3 0  9993
2 33321  97.6515 145.7057 0035048 221.2207 138.6360 14.83296277956637
SHIJIAN-6 03A (SJ-6 03A)
1 33408U 08053A   26156.17666351  .00006246  00000+0  31871-3 0  9999
2 33408  97.8408 189.0804 0012619  58.1630 302.0829 15.17043032961149
SHIJIAN-6 03B (SJ-6 03B)
1 33409U 08053B   26156.19314764  .00002265  00000+0  16666-3 0  9992
2 33409  97.8579 175.8856 0020799  81.8967 278.4617 15.04276133960947
CHUANGXIN 1-02 (CX-1-02)
1 33434U 08056B   26156.19398803  .00000141  00000+0  71209-4 0  9995
2 33434  98.6133 182.5801 0014245 170.6723 189.4726 14.30150794916902
